{
  "type": "FeatureCollection",
  "features": [
    {
      "type": "Feature",
      "properties": {
        "norad_id": 66542,
        "name": "STARLINK-35833",
        "group": "last-30-days",
        "lat": 16.89247096794405,
        "lon": -131.52879524158212,
        "alt_km": 413.0510750660069,
        "timestamp": "2025-12-10T09:57:43.489097+00:00",
        "meta_object_name": "STARLINK-35833",
        "meta_object_id": "2025-265AC",
        "meta_epoch": "2025-12-10T04:00:01.998720",
        "meta_mean_motion": 15.50538131,
        "meta_eccentricity": 0.0001771,
        "meta_inclination": 43,
        "meta_ra_of_asc_node": 68.9439,
        "meta_arg_of_pericenter": 274.2967,
        "meta_mean_anomaly": 292.2114,
        "meta_ephemeris_type": 0,
        "meta_classification_type": "U",
        "meta_norad_cat_id": 66542,
        "meta_element_set_no": 999,
        "meta_rev_at_epoch": 458,
        "meta_bstar": 0.0006024,
        "meta_mean_motion_dot": 0.00035106,
        "meta_mean_motion_ddot": 0,
        "tle_line1": "1 66542U 25265AC  25344.16668980  .00035106  00000+0  60240-3 0  9994",
        "tle_line2": "2 66542  43.0000  68.9439 0001771 274.2967 292.2114 15.50538131  4584"
      },
      "geometry": {
        "type": "Point",
        "coordinates": [
          -131.52879524158212,
          16.89247096794405
        ]
      }
    },
    {
      "type": "Feature",
      "properties": {
        "norad_id": 66543,
        "name": "STARLINK-35315",
        "group": "last-30-days",
        "lat": 15.645770095766853,
        "lon": -130.00613600303652,
        "alt_km": 413.1015963423697,
        "timestamp": "2025-12-10T09:57:43.489107+00:00",
        "meta_object_name": "STARLINK-35315",
        "meta_object_id": "2025-265AD",
        "meta_epoch": "2025-12-10T04:00:01.998720",
        "meta_mean_motion": 15.5059006,
        "meta_eccentricity": 0.0001708,
        "meta_inclination": 42.9999,
        "meta_ra_of_asc_node": 68.9378,
        "meta_arg_of_pericenter": 269.6308,
        "meta_mean_anomaly": 298.7771,
        "meta_ephemeris_type": 0,
        "meta_classification_type": "U",
        "meta_norad_cat_id": 66543,
        "meta_element_set_no": 999,
        "meta_rev_at_epoch": 447,
        "meta_bstar": -0.0010521,
        "meta_mean_motion_dot": -0.00061606,
        "meta_mean_motion_ddot": 0,
        "tle_line1": "1 66543U 25265AD  25344.16668980 -.00061606  00000+0 -10521-2 0  9997",
        "tle_line2": "2 66543  42.9999  68.9378 0001708 269.6308 298.7771 15.50590060  4476"
      },
      "geometry": {
        "type": "Point",
        "coordinates": [
          -130.00613600303652,
          15.645770095766853
        ]
      }
    },
    {
      "type": "Feature",
      "properties": {
        "norad_id": 66544,
        "name": "STARLINK-35728",
        "group": "last-30-days",
        "lat": 14.39356958151394,
        "lon": -128.5061531782445,
        "alt_km": 413.2171929377182,
        "timestamp": "2025-12-10T09:57:43.489117+00:00",
        "meta_object_name": "STARLINK-35728",
        "meta_object_id": "2025-265AE",
        "meta_epoch": "2025-12-10T04:00:01.998720",
        "meta_mean_motion": 15.50590795,
        "meta_eccentricity": 0.0001666,
        "meta_inclination": 42.9999,
        "meta_ra_of_asc_node": 68.9334,
        "meta_arg_of_pericenter": 267.9968,
        "meta_mean_anomaly": 302.3275,
        "meta_ephemeris_type": 0,
        "meta_classification_type": "U",
        "meta_norad_cat_id": 66544,
        "meta_element_set_no": 999,
        "meta_rev_at_epoch": 458,
        "meta_bstar": -0.0010667,
        "meta_mean_motion_dot": -0.00062453,
        "meta_mean_motion_ddot": 0,
        "tle_line1": "1 66544U 25265AE  25344.16668980 -.00062453  00000+0 -10667-2 0  9990",
        "tle_line2": "2 66544  42.9999  68.9334 0001666 267.9968 302.3275 15.50590795  4583"
      },
      "geometry": {
        "type": "Point",
        "coordinates": [
          -128.5061531782445,
          14.39356958151394
        ]
      }
    },
    {
      "type": "Feature",
      "properties": {
        "norad_id": 66545,
        "name": "SHIJIAN-30A",
        "group": "last-30-days",
        "lat": 4.136932552380384,
        "lon": 160.48716007519457,
        "alt_km": 528.1759182465712,
        "timestamp": "2025-12-10T09:57:43.489130+00:00",
        "meta_object_name": "SHIJIAN-30A",
        "meta_object_id": "2025-266A",
        "meta_epoch": "2025-12-10T04:26:48.852096",
        "meta_mean_motion": 15.15565559,
        "meta_eccentricity": 0.0012765,
        "meta_inclination": 51.799,
        "meta_ra_of_asc_node": 344.8294,
        "meta_arg_of_pericenter": 347.1434,
        "meta_mean_anomaly": 12.9215,
        "meta_ephemeris_type": 0,
        "meta_classification_type": "U",
        "meta_norad_cat_id": 66545,
        "meta_element_set_no": 999,
        "meta_rev_at_epoch": 319,
        "meta_bstar": 0.00077339,
        "meta_mean_motion_dot": 0.00014605,
        "meta_mean_motion_ddot": 0,
        "tle_line1": "1 66545U 25266A   25344.18528764  .00014605  00000+0  77339-3 0  9993",
        "tle_line2": "2 66545  51.7990 344.8294 0012765 347.1434  12.9215 15.15565559  3190"
      },
      "geometry": {
        "type": "Point",
        "coordinates": [
          160.48716007519457,
          4.136932552380384
        ]
      }
    },
    {
      "type": "Feature",
      "properties": {
        "norad_id": 66546,
        "name": "SHIJIAN-30B",
        "group": "last-30-days",
        "lat": 7.485536047727424,
        "lon": 157.81859322010854,
        "alt_km": 526.943040291234,
        "timestamp": "2025-12-10T09:57:43.489140+00:00",
        "meta_object_name": "SHIJIAN-30B",
        "meta_object_id": "2025-266B",
        "meta_epoch": "2025-12-10T04:27:53.670240",
        "meta_mean_motion": 15.15311824,
        "meta_eccentricity": 0.0010457,
        "meta_inclination": 51.7972,
        "meta_ra_of_asc_node": 344.8313,
        "meta_arg_of_pericenter": 350.1104,
        "meta_mean_anomaly": 9.9664,
        "meta_ephemeris_type": 0,
        "meta_classification_type": "U",
        "meta_norad_cat_id": 66546,
        "meta_element_set_no": 999,
        "meta_rev_at_epoch": 319,
        "meta_bstar": 0.00076136,
        "meta_mean_motion_dot": 0.00014259,
        "meta_mean_motion_ddot": 0,
        "tle_line1": "1 66546U 25266B   25344.18603785  .00014259  00000+0  76136-3 0  9990",
        "tle_line2": "2 66546  51.7972 344.8313 0010457 350.1104   9.9664 15.15311824  3195"
      },
      "geometry": {
        "type": "Point",
        "coordinates": [
          157.81859322010854,
          7.485536047727424
        ]
      }
    },
    {
      "type": "Feature",
      "properties": {
        "norad_id": 66547,
        "name": "SHIJIAN-30C",
        "group": "last-30-days",
        "lat": 9.59888786580266,
        "lon": 156.11142419733667,
        "alt_km": 526.1414731226323,
        "timestamp": "2025-12-10T09:57:43.489152+00:00",
        "meta_object_name": "SHIJIAN-30C",
        "meta_object_id": "2025-266C",
        "meta_epoch": "2025-12-10T02:53:43.836864",
        "meta_mean_motion": 15.15665384,
        "meta_eccentricity": 0.001134,
        "meta_inclination": 51.7981,
        "meta_ra_of_asc_node": 345.1452,
        "meta_arg_of_pericenter": 342.3198,
        "meta_mean_anomaly": 17.7382,
        "meta_ephemeris_type": 0,
        "meta_classification_type": "U",
        "meta_norad_cat_id": 66547,
        "meta_element_set_no": 999,
        "meta_rev_at_epoch": 318,
        "meta_bstar": 0.00079714,
        "meta_mean_motion_dot": 0.00015102,
        "meta_mean_motion_ddot": 0,
        "tle_line1": "1 66547U 25266C   25344.12064626  .00015102  00000+0  79714-3 0  9993",
        "tle_line2": "2 66547  51.7981 345.1452 0011340 342.3198  17.7382 15.15665384  3188"
      },
      "geometry": {
        "type": "Point",
        "coordinates": [
          156.11142419733667,
          9.59888786580266
        ]
      }
    },
    {
      "type": "Feature",
      "properties": {
        "norad_id": 66548,
        "name": "CZ-2C R/B",
        "group": "last-30-days",
        "lat": -6.445514814349974,
        "lon": 167.41057389553205,
        "alt_km": 424.01072513589406,
        "timestamp": "2025-12-10T09:57:43.489163+00:00",
        "meta_object_name": "CZ-2C R/B",
        "meta_object_id": "2025-266D",
        "meta_epoch": "2025-12-10T04:26:37.163040",
        "meta_mean_motion": 15.30092915,
        "meta_eccentricity": 0.0084055,
        "meta_inclination": 52.0566,
        "meta_ra_of_asc_node": 343.4493,
        "meta_arg_of_pericenter": 164.2644,
        "meta_mean_anomaly": 196.0984,
        "meta_ephemeris_type": 0,
        "meta_classification_type": "U",
        "meta_norad_cat_id": 66548,
        "meta_element_set_no": 999,
        "meta_rev_at_epoch": 322,
        "meta_bstar": 0.00044912,
        "meta_mean_motion_dot": 0.0001441,
        "meta_mean_motion_ddot": 0,
        "tle_line1": "1 66548U 25266D   25344.18515235  .00014410  00000+0  44912-3 0  9990",
        "tle_line2": "2 66548  52.0566 343.4493 0084055 164.2644 196.0984 15.30092915  3223"
      },
      "geometry": {
        "type": "Point",
        "coordinates": [
          167.41057389553205,
          -6.445514814349974
        ]
      }
    }
  ]
}